{
  "type": "FeatureCollection",
  "features": [
    {
      "type": "Feature",
      "properties": {
        "norad_id": 30454,
        "name": "FENGYUN 1C DEB",
        "group": "fengyun-1c-debris",
        "lat": 73.91313044218721,
        "lon": 177.42890457374298,
        "alt_km": 764.4582408395745,
        "timestamp": "2025-12-24T11:33:00.293381+00:00",
        "meta_object_name": "FENGYUN 1C DEB",
        "meta_object_id": "1999-025AFR",
        "meta_epoch": "2025-12-23T21:45:08.080128",
        "meta_mean_motion": 14.154638,
        "meta_eccentricity": 0.0171309,
        "meta_inclination": 98.134,
        "meta_ra_of_asc_node": 327.1734,
        "meta_arg_of_pericenter": 162.3723,
        "meta_mean_anomaly": 255.2725,
        "meta_ephemeris_type": 0,
        "meta_classification_type": "U",
        "meta_norad_cat_id": 30454,
        "meta_element_set_no": 999,
        "meta_rev_at_epoch": 96118,
        "meta_bstar": 0.0016509,
        "meta_mean_motion_dot": 3.679e-05,
        "meta_mean_motion_ddot": 0,
        "tle_line1": "1 30454U 99025AFR 25357.90634352  .00003679  00000+0  16509-2 0  9992",
        "tle_line2": "2 30454  98.1340 327.1734 0171309 162.3723 255.2725 14.15463800961180"
      },
      "geometry": {
        "type": "Point",
        "coordinates": [
          177.42890457374298,
          73.91313044218721
        ]
      }
    },
    {
      "type": "Feature",
      "properties": {
        "norad_id": 30462,
        "name": "FENGYUN 1C DEB",
        "group": "fengyun-1c-debris",
        "lat": 0.5861846736019891,
        "lon": 166.5141052759326,
        "alt_km": 794.7080281273638,
        "timestamp": "2025-12-24T11:33:00.293391+00:00",
        "meta_object_name": "FENGYUN 1C DEB",
        "meta_object_id": "1999-025AFZ",
        "meta_epoch": "2025-12-23T23:00:55.198944",
        "meta_mean_motion": 14.06273574,
        "meta_eccentricity": 0.0139048,
        "meta_inclination": 98.8177,
        "meta_ra_of_asc_node": 345.9143,
        "meta_arg_of_pericenter": 218.4939,
        "meta_mean_anomaly": 199.1362,
        "meta_ephemeris_type": 0,
        "meta_classification_type": "U",
        "meta_norad_cat_id": 30462,
        "meta_element_set_no": 999,
        "meta_rev_at_epoch": 96951,
        "meta_bstar": 9.2061e-05,
        "meta_mean_motion_dot": 1.22e-06,
        "meta_mean_motion_ddot": 0,
        "tle_line1": "1 30462U 99025AFZ 25357.95897221  .00000122  00000+0  92061-4 0  9991",
        "tle_line2": "2 30462  98.8177 345.9143 0139048 218.4939 199.1362 14.06273574969517"
      },
      "geometry": {
        "type": "Point",
        "coordinates": [
          166.5141052759326,
          0.5861846736019891
        ]
      }
    },
    {
      "type": "Feature",
      "properties": {
        "norad_id": 30464,
        "name": "FENGYUN 1C DEB",
        "group": "fengyun-1c-debris",
        "lat": 39.67288806426436,
        "lon": 41.1696454363697,
        "alt_km": 933.7394492206568,
        "timestamp": "2025-12-24T11:33:00.293401+00:00",
        "meta_object_name": "FENGYUN 1C DEB",
        "meta_object_id": "1999-025AGB",
        "meta_epoch": "2025-12-24T03:06:51.402240",
        "meta_mean_motion": 14.10249823,
        "meta_eccentricity": 0.0108623,
        "meta_inclination": 98.8355,
        "meta_ra_of_asc_node": 48.2366,
        "meta_arg_of_pericenter": 226.124,
        "meta_mean_anomaly": 190.6049,
        "meta_ephemeris_type": 0,
        "meta_classification_type": "U",
        "meta_norad_cat_id": 30464,
        "meta_element_set_no": 999,
        "meta_rev_at_epoch": 97224,
        "meta_bstar": 6.3181e-05,
        "meta_mean_motion_dot": 7.4e-07,
        "meta_mean_motion_ddot": 0,
        "tle_line1": "1 30464U 99025AGB 25358.12976160  .00000074  00000+0  63181-4 0  9990",
        "tle_line2": "2 30464  98.8355  48.2366 0108623 226.1240 190.6049 14.10249823972240"
      },
      "geometry": {
        "type": "Point",
        "coordinates": [
          41.1696454363697,
          39.67288806426436
        ]
      }
    },
    {
      "type": "Feature",
      "properties": {
        "norad_id": 30465,
        "name": "FENGYUN 1C DEB",
        "group": "fengyun-1c-debris",
        "lat": 13.903895729438622,
        "lon": -90.85784501678862,
        "alt_km": 791.0129016325791,
        "timestamp": "2025-12-24T11:33:00.293412+00:00",
        "meta_object_name": "FENGYUN 1C DEB",
        "meta_object_id": "1999-025AGC",
        "meta_epoch": "2025-12-23T04:46:32.583936",
        "meta_mean_motion": 14.3397136,
        "meta_eccentricity": 0.00163951,
        "meta_inclination": 98.8281,
        "meta_ra_of_asc_node": 85.629,
        "meta_arg_of_pericenter": 357.7946,
        "meta_mean_anomaly": 32.2946,
        "meta_ephemeris_type": 0,
        "meta_classification_type": "U",
        "meta_norad_cat_id": 30465,
        "meta_element_set_no": 999,
        "meta_rev_at_epoch": 97508,
        "meta_bstar": 0.001816993,
        "meta_mean_motion_dot": 5.034e-05,
        "meta_mean_motion_ddot": 0,
        "tle_line1": "1 30465U 99025AGC 25357.19898824  .00005034  00000+0  18170-2 0  9994",
        "tle_line2": "2 30465  98.8281  85.6290 0016395 357.7946  32.2946 14.33971360975083"
      },
      "geometry": {
        "type": "Point",
        "coordinates": [
          -90.85784501678862,
          13.903895729438622
        ]
      }
    },
    {
      "type": "Feature",
      "properties": {
        "norad_id": 30466,
        "name": "FENGYUN 1C DEB",
        "group": "fengyun-1c-debris",
        "lat": -12.732306157984185,
        "lon": 40.271556400615125,
        "alt_km": 737.6629724768618,
        "timestamp": "2025-12-24T11:33:00.293423+00:00",
        "meta_object_name": "FENGYUN 1C DEB",
        "meta_object_id": "1999-025AGD",
        "meta_epoch": "2025-12-24T01:37:07.895136",
        "meta_mean_motion": 14.2258629,
        "meta_eccentricity": 0.0116,
        "meta_inclination": 98.6539,
        "meta_ra_of_asc_node": 37.8931,
        "meta_arg_of_pericenter": 351.3304,
        "meta_mean_anomaly": 37.9675,
        "meta_ephemeris_type": 0,
        "meta_classification_type": "U",
        "meta_norad_cat_id": 30466,
        "meta_element_set_no": 999,
        "meta_rev_at_epoch": 97512,
        "meta_bstar": 0.0010739,
        "meta_mean_motion_dot": 2.527e-05,
        "meta_mean_motion_ddot": 0,
        "tle_line1": "1 30466U 99025AGD 25358.06745249  .00002527  00000+0  10739-2 0  9991",
        "tle_line2": "2 30466  98.6539  37.8931 0116000 351.3304  37.9675 14.22586290975129"
      },
      "geometry": {
        "type": "Point",
        "coordinates": [
          40.271556400615125,
          -12.732306157984185
        ]
      }
    },
    {
      "type": "Feature",
      "properties": {
        "norad_id": 30467,
        "name": "FENGYUN 1C DEB",
        "group": "fengyun-1c-debris",
        "lat": -79.04359816748912,
        "lon": 77.81752296295353,
        "alt_km": 888.7487860961846,
        "timestamp": "2025-12-24T11:33:00.293434+00:00",
        "meta_object_name": "FENGYUN 1C DEB",
        "meta_object_id": "1999-025AGE",
        "meta_epoch": "2025-12-23T00:38:09.528288",
        "meta_mean_motion": 14.17309282,
        "meta_eccentricity": 0.00651851,
        "meta_inclination": 98.6779,
        "meta_ra_of_asc_node": 24.3145,
        "meta_arg_of_pericenter": 98.3407,
        "meta_mean_anomaly": 319.9669,
        "meta_ephemeris_type": 0,
        "meta_classification_type": "U",
        "meta_norad_cat_id": 30467,
        "meta_element_set_no": 999,
        "meta_rev_at_epoch": 97323,
        "meta_bstar": 0.00078321719,
        "meta_mean_motion_dot": 1.574e-05,
        "meta_mean_motion_ddot": 0,
        "tle_line1": "1 30467U 99025AGE 25357.02649917  .00001574  00000+0  78322-3 0  9996",
        "tle_line2": "2 30467  98.6779  24.3145 0065185  98.3407 319.9669 14.17309282973237"
      },
      "geometry": {
        "type": "Point",
        "coordinates": [
          77.81752296295353,
          -79.04359816748912
        ]
      }
    },
    {
      "type": "Feature",
      "properties": {
        "norad_id": 30468,
        "name": "FENGYUN 1C DEB",
        "group": "fengyun-1c-debris",
        "lat": 12.302722230087962,
        "lon": 78.12412946022214,
        "alt_km": 772.8493325101772,
        "timestamp": "2025-12-24T11:33:00.293444+00:00",
        "meta_object_name": "FENGYUN 1C DEB",
        "meta_object_id": "1999-025AGF",
        "meta_epoch": "2025-12-23T05:11:24.108864",
        "meta_mean_motion": 14.2076911,
        "meta_eccentricity": 0.00713808,
        "meta_inclination": 98.9215,
        "meta_ra_of_asc_node": 78.8107,
        "meta_arg_of_pericenter": 9.42,
        "meta_mean_anomaly": 16.4672,
        "meta_ephemeris_type": 0,
        "meta_classification_type": "U",
        "meta_norad_cat_id": 30468,
        "meta_element_set_no": 999,
        "meta_rev_at_epoch": 96959,
        "meta_bstar": 0.0014073656,
        "meta_mean_motion_dot": 3.072e-05,
        "meta_mean_motion_ddot": 0,
        "tle_line1": "1 30468U 99025AGF 25357.21625126  .00003072  00000+0  14074-2 0  9992",
        "tle_line2": "2 30468  98.9215  78.8107 0071380   9.4200  16.4672 14.20769110969597"
      },
      "geometry": {
        "type": "Point",
        "coordinates": [
          78.12412946022214,
          12.302722230087962
        ]
      }
    }
  ]
}